GEOSCAN 3 (RS92S3)      
1 64893U 25155T   26165.26008393  .00017956  00000+0  52513-3 0  9995
2 64893  97.4531 135.1030 0006335 169.6242 190.5134 15.35308938 80401
INNOSAT 3 (RS92S0)      
1 64894U 25155U   26165.26608445  .00036148  00000+0  80154-3 0  9996
2 64894  97.4481 136.6923 0006018 158.5495 201.6007 15.43643017 80512
KNACKSAT-2              
1 67683U 98067XZ  26164.69872930  .00046958  00000+0  57858-3 0  9990
2 67683  51.6303 312.0209 0009611 199.6131 160.4494 15.59677165 19734
