OBJECT_NAME,OBJECT_ID,EPOCH,MEAN_MOTION,ECCENTRICITY,INCLINATION,RA_OF_ASC_NODE,ARG_OF_PERICENTER,MEAN_ANOMALY,EPHEMERIS_TYPE,CLASSIFICATION_TYPE,NORAD_CAT_ID,ELEMENT_SET_NO,REV_AT_EPOCH,BSTAR,MEAN_MOTION_DOT,MEAN_MOTION_DDOT
GEOSCAN 3 (RS92S3),2025-155T,2026-06-14T06:14:31.251552,15.35308938,.00063355,97.4531,135.1030,169.6242,190.5134,0,U,64893,999,8040,.52512834E-3,.17956E-3,0
INNOSAT 3 (RS92S0),2025-155U,2026-06-14T06:23:09.696480,15.43643017,.00060189,97.4481,136.6923,158.5495,201.6007,0,U,64894,999,8051,.80153636E-3,.36148E-3,0
KNACKSAT-2,1998-067XZ,2026-06-13T16:46:10.211520,15.59677165,.00096113,51.6303,312.0209,199.6131,160.4494,0,U,67683,999,1973,.57858406E-3,.46958E-3,0
